NORAD_CAT_ID,OBJECT_NAME,OBJECT_TYPE,EPOCH,MEAN_MOTION,ECCENTRICITY,INCLINATION,RA_OF_ASC_NODE,ARG_OF_PERICENTER,MEAN_ANOMALY,BSTAR,MEAN_MOTION_DOT,MEAN_MOTION_DDOT,TLE_LINE0,TLE_LINE1,TLE_LINE2,SEMIMAJOR_AXIS,PERIOD,APOGEE,PERIGEE,DECAYED
53829.0,STARLINK-4759,PAYLOAD,2024-07-03 06:20:06,15.08839382,0.000137,53.2157,182.4072,90.3121,269.8028,6.3134e-06,-1.87e-06,0.0,0 STARLINK-4759,1 53829U 22114M   24185.26396441 -.00000187  00000-0  63134-5 0  9991,2 53829  53.2157 182.4072 0001370  90.3121 269.8028 15.08839382 99531,6917.882,95.438,540.695,538.8,0.0
53829.0,STARLINK-4759,PAYLOAD,2024-07-03 17:27:48,15.08842436,0.0001378,53.216,180.3257,90.6553,269.4597,3.3628e-05,2.47e-06,0.0,0 STARLINK-4759,1 53829U 22114M   24185.72764083  .00000247  00000-0  33628-4 0  9993,2 53829  53.2160 180.3257 0001378  90.6553 269.4597 15.08842436100148,6917.873,95.437,540.691,538.785,0.0
53829.0,STARLINK-4759,PAYLOAD,2024-07-04 09:21:39,15.08839027,0.0001419,53.2166,177.3519,93.9848,266.1306,8.9528e-06,-1.45e-06,0.0,0 STARLINK-4759,1 53829U 22114M   24186.39004312 -.00000145  00000-0  89528-5 0  9998,2 53829  53.2166 177.3519 0001419  93.9848 266.1306 15.08839027 99703,6917.883,95.438,540.73,538.767,0.0
53829.0,STARLINK-4759,PAYLOAD,2024-07-05 09:12:27,15.08833726,0.0001367,53.2165,172.8915,93.1755,266.9394,-1.2387e-05,-4.85e-06,0.0,0 STARLINK-4759,1 53829U 22114M   24187.38364887 -.00000485  00000-0 -12387-4 0  9990,2 53829  53.2165 172.8915 0001367  93.1755 266.9394 15.08833726 99854,6917.9,95.438,540.71,538.819,0.0
53829.0,STARLINK-4759,PAYLOAD,2024-07-05 15:33:59,15.08837602,0.0001356,53.2166,171.7027,92.1348,267.9799,1.9387e-05,2.1e-07,0.0,0 STARLINK-4759,1 53829U 22114M   24187.64860600  .00000021  00000-0  19387-4 0  9994,2 53829  53.2166 171.7027 0001356  92.1348 267.9799 15.08837602100436,6917.888,95.438,540.691,538.815,0.0
53829.0,STARLINK-4759,PAYLOAD,2024-07-06 09:03:14,15.08837909,0.0001357,53.2167,168.4319,91.6642,268.4505,3.8816e-05,3.3e-06,0.0,0 STARLINK-4759,1 53829U 22114M   24188.37724698  .00000330  00000-0  38816-4 0  9992,2 53829  53.2167 168.4319 0001357  91.6642 268.4505 15.08837909100549,6917.887,95.438,540.691,538.813,0.0
53829.0,STARLINK-4759,PAYLOAD,2024-07-06 15:24:46,15.08841522,0.0001378,53.2171,167.2427,91.6129,268.5021,6.5112e-05,7.49e-06,0.0,0 STARLINK-4759,1 53829U 22114M   24188.64220348  .00000749  00000-0  65112-4 0  9998,2 53829  53.2171 167.2427 0001378  91.6129 268.5021 15.08841522100049,6917.876,95.437,540.694,538.787,0.0
53829.0,STARLINK-4759,PAYLOAD,2024-07-07 05:43:15,15.08832868,0.0001462,53.2173,164.5677,103.7338,256.3817,4.754e-05,4.69e-06,0.0,0 STARLINK-4759,1 53829U 22114M   24189.23837126  .00000469  00000-0  47540-4 0  9996,2 53829  53.2173 164.5677 0001462 103.7338 256.3817 15.08832868100130,6917.902,95.438,540.779,538.756,0.0
53829.0,STARLINK-4759,PAYLOAD,2024-07-07 21:37:06,15.08839231,0.0001472,53.2178,161.5942,102.0992,258.0165,7.7388e-05,9.44e-06,0.0,0 STARLINK-4759,1 53829U 22114M   24189.90076790  .00000944  00000-0  77388-4 0  9993,2 53829  53.2178 161.5942 0001472 102.0992 258.0165 15.08839231100233,6917.883,95.438,540.766,538.729,0.0
53829.0,STARLINK-4759,PAYLOAD,2024-07-08 07:09:25,15.08838064,0.0001402,53.2173,159.8097,98.8399,261.2752,6.9354e-05,8.16e-06,0.0,0 STARLINK-4759,1 53829U 22114M   24190.29820895  .00000816  00000-0  69354-4 0  9992,2 53829  53.2173 159.8097 0001402  98.8399 261.2752 15.08838064100832,6917.886,95.438,540.721,538.781,0.0
53829.0,STARLINK-4759,PAYLOAD,2024-07-08 15:06:20,15.08843452,0.0001298,53.2163,158.3215,91.5246,268.5895,4.4732e-05,4.24e-06,0.0,0 STARLINK-4759,1 53829U 22114M   24190.62940606  .00000424  00000-0  44732-4 0  9990,2 53829  53.2163 158.3215 0001298  91.5246 268.5895 15.08843452100881,6917.87,95.437,540.633,538.837,0.0
53829.0,STARLINK-4759,PAYLOAD,2024-07-09 03:49:26,15.08836923,0.0001342,53.2162,155.9423,95.3686,264.7459,1.042e-05,-1.22e-06,0.0,0 STARLINK-4759,1 53829U 22114M   24191.15933247 -.00000122  00000-0  10420-4 0  9995,2 53829  53.2162 155.9423 0001342  95.3686 264.7459 15.08836923100423,6917.89,95.438,540.683,538.826,0.0
53829.0,STARLINK-4759,PAYLOAD,2024-07-09 07:00:12,15.08841204,0.0001184,53.2166,155.3447,80.2338,279.8788,1.0393e-05,-1.22e-06,0.0,0 STARLINK-4759,1 53829U 22114M   24191.29180980 -.00000122  00000-0  10393-4 0  9997,2 53829  53.2166 155.3447 0001184  80.2338 279.8788 15.08841204100989,6917.877,95.437,540.561,538.923,0.0
53829.0,STARLINK-4759,PAYLOAD,2024-07-09 14:57:07,15.08847266,0.0001273,53.2163,153.8583,87.2557,272.8581,1.9923e-05,2.9e-07,0.0,0 STARLINK-4759,1 53829U 22114M   24191.62300498  .00000029  00000-0  19923-4 0  9995,2 53829  53.2163 153.8583 0001273  87.2557 272.8581 15.08847266100493,6917.858,95.437,540.604,538.843,0.0
53829.0,STARLINK-4759,PAYLOAD,2024-07-10 03:40:13,15.08837593,0.0001523,53.2178,151.4814,96.7906,263.326,-3.4811e-06,-3.43e-06,0.0,0 STARLINK-4759,1 53829U 22114M   24192.15293375 -.00000343  00000-0 -34811-5 0  9994,2 53829  53.2178 151.4814 0001523  96.7906 263.3260 15.08837593100571,6917.888,95.438,540.806,538.699,0.0
53829.0,STARLINK-4759,PAYLOAD,2024-07-10 14:47:54,15.08841682,0.000131,53.2169,149.4004,95.6083,264.5059,6.3902e-05,7.29e-06,0.0,0 STARLINK-4759,1 53829U 22114M   24192.61660869  .00000729  00000-0  63902-4 0  9999,2 53829  53.2169 149.4004 0001310  95.6083 264.5059 15.08841682101188,6917.875,95.437,540.646,538.834,0.0
53829.0,STARLINK-4759,PAYLOAD,2024-07-11 03:30:59,15.08843727,0.0001454,53.2175,147.0202,97.1163,262.9994,5.9896e-05,6.66e-06,0.0,0 STARLINK-4759,1 53829U 22114M   24193.14652752  .00000666  00000-0  59896-4 0  9997,2 53829  53.2175 147.0202 0001454  97.1163 262.9994 15.08843727100725,6917.869,95.437,540.74,538.728,0.0
53829.0,STARLINK-4759,PAYLOAD,2024-07-11 06:41:46,15.08845401,0.0001475,53.2177,146.4249,98.1583,261.9577,7.3058e-05,8.75e-06,0.0,0 STARLINK-4759,1 53829U 22114M   24193.27900569  .00000875  00000-0  73058-4 0  9991,2 53829  53.2177 146.4249 0001475  98.1583 261.9577 15.08845401101280,6917.864,95.437,540.749,538.708,0.0
53829.0,STARLINK-4759,PAYLOAD,2024-07-12 03:21:47,15.08834369,0.0001484,53.2179,142.5592,101.9559,258.16,1.0333e-05,-1.24e-06,0.0,0 STARLINK-4759,1 53829U 22114M   24194.14013475 -.00000124  00000-0  10333-4 0  9994,2 53829  53.2179 142.5592 0001484 101.9559 258.1600 15.08834369100876,6917.898,95.438,540.789,538.736,0.0
53829.0,STARLINK-4759,PAYLOAD,2024-07-12 06:32:33,15.0883452,0.0001482,53.2179,141.9646,101.6478,258.4681,1.0702e-05,-1.18e-06,0.0,0 STARLINK-4759,1 53829U 22114M   24194.27261516 -.00000118  00000-0  10702-4 0  9992,2 53829  53.2179 141.9646 0001482 101.6478 258.4681 15.08834520101438,6917.897,95.438,540.787,538.737,0.0
53829.0,STARLINK-4759,PAYLOAD,2024-07-13 12:44:52,15.08845876,0.0001286,53.2168,136.3167,98.3056,261.8082,4.7659e-05,4.71e-06,0.0,0 STARLINK-4759,1 53829U 22114M   24195.53116866  .00000471  00000-0  47659-4 0  9991,2 53829  53.2168 136.3167 0001286  98.3056 261.8082 15.08845876101088,6917.862,95.437,540.617,538.838,0.0
53829.0,STARLINK-4759,PAYLOAD,2024-07-13 20:41:49,15.08834531,0.0001699,53.2171,134.833,107.2272,252.8906,3.1321e-05,2.1e-06,0.0,0 STARLINK-4759,1 53829U 22114M   24195.86237882  .00000210  00000-0  31321-4 0  9999,2 53829  53.2171 134.8330 0001699 107.2272 252.8906 15.08834531101132,6917.897,95.438,540.937,538.587,0.0
53829.0,STARLINK-4759,PAYLOAD,2024-07-14 12:35:40,15.08845955,0.0001435,53.2181,131.8633,110.0508,250.0639,0.00013565,1.872e-05,0.0,0 STARLINK-4759,1 53829U 22114M   24196.52476949  .00001872  00000-0  13565-3 0  9996,2 53829  53.2181 131.8633 0001435 110.0508 250.0639 15.08845955101234,6917.862,95.437,540.72,538.734,0.0
53829.0,STARLINK-4759,PAYLOAD,2024-07-14 20:32:37,15.08830295,0.0001272,53.2169,130.3702,88.4316,271.6822,-3.0689e-05,-7.76e-06,0.0,0 STARLINK-4759,1 53829U 22114M   24196.85598483 -.00000776  00000-0 -30689-4 0  9991,2 53829  53.2169 130.3702 0001272  88.4316 271.6822 15.08830295101284,6917.91,95.438,540.655,538.895,0.0
53829.0,STARLINK-4759,PAYLOAD,2024-07-15 02:54:09,15.08839303,0.000138,53.2173,129.1799,84.7983,275.3167,5.4033e-05,5.72e-06,0.0,0 STARLINK-4759,1 53829U 22114M   24197.12093803  .00000572  00000-0  54033-4 0  9999,2 53829  53.2173 129.1799 0001380  84.7983 275.3167 15.08839303101327,6917.883,95.438,540.702,538.793,0.0
53829.0,STARLINK-4759,PAYLOAD,2024-07-15 12:26:27,15.08848359,0.0001481,53.2188,127.3962,87.0172,273.099,7.3117e-05,8.76e-06,0.0,0 STARLINK-4759,1 53829U 22114M   24197.51837169  .00000876  00000-0  73117-4 0  9994,2 53829  53.2188 127.3962 0001481  87.0172 273.0990 15.08848359101389,6917.855,95.437,540.744,538.695,0.0
53829.0,STARLINK-4759,PAYLOAD,2024-07-16 04:20:18,15.08845239,0.0001238,53.2167,124.4236,90.8256,269.2878,9.2477e-05,1.184e-05,0.0,0 STARLINK-4759,1 53829U 22114M   24198.18077498  .00001184  00000-0  92477-4 0  9992,2 53829  53.2167 124.4236 0001238  90.8256 269.2878 15.08845239101480,6917.864,95.437,540.586,538.873,0.0
53829.0,STARLINK-4759,PAYLOAD,2024-07-17 12:08:00,15.08855993,0.0001289,53.2156,118.4736,101.6423,258.4714,0.00021751,3.177e-05,0.0,0 STARLINK-4759,1 53829U 22114M   24199.50556616  .00003177  00000-0  21751-3 0  9993,2 53829  53.2156 118.4736 0001289 101.6423 258.4714 15.08855993101688,6917.832,95.437,540.588,538.805,0.0
53829.0,STARLINK-4759,PAYLOAD,2024-07-18 04:01:53,15.08834308,0.0001723,53.2155,115.4962,118.8504,241.2662,-7.0127e-05,-1.404e-05,0.0,0 STARLINK-4759,1 53829U 22114M   24200.16797938 -.00001404  00000-0 -70127-4 0  9997,2 53829  53.2155 115.4962 0001723 118.8504 241.2662 15.08834308101788,6917.898,95.438,540.955,538.571,0.0
53829.0,STARLINK-4759,PAYLOAD,2024-07-18 11:58:48,15.08841111,0.0001749,53.2182,114.0091,120.2084,239.9081,7.9408e-05,9.76e-06,0.0,0 STARLINK-4759,1 53829U 22114M   24200.49917702  .00000976  00000-0  79408-4 0  9998,2 53829  53.2182 114.0091 0001749 120.2084 239.9081 15.08841111102379,6917.877,95.437,540.952,538.532,0.0
